[
  {
    "OBJECT_NAME": "STARLINK-5673",
    "OBJECT_ID": "23015P",
    "EPOCH": "2025-11-11T05:16:19.944192",
    "MEAN_MOTION": 15.02545004,
    "ECCENTRICITY": 0.0001522,
    "INCLINATION": 43.0056,
    "RA_OF_ASC_NODE": 249.6684,
    "ARG_OF_PERICENTER": 261.5816,
    "MEAN_ANOMALY": 98.4854,
    "EPHEMERIS_TYPE": 0,
    "CLASSIFICATION_TYPE": "U",
    "NORAD_CAT_ID": 55462,
    "ELEMENT_SET_NO": 999,
    "REV_AT_EPOCH": 15293,
    "BSTAR": 0.00020098,
    "MEAN_MOTION_DOT": 2.513e-05,
    "MEAN_MOTION_DDOT": 0.0,
    "TLE_LINE1": "1 55462U 23015P   25315.21967528  .00002513  00000+0  20098-3 0  9991",
    "TLE_LINE2": "2 55462  43.0056 249.6684 0001522 261.5816  98.4854 15.02545004152934",
    "COMMENT": "Grouped by shell and plane from TLE"
  },
  {
    "OBJECT_NAME": "STARLINK-5676",
    "OBJECT_ID": "23015R",
    "EPOCH": "2025-11-11T05:06:44.630784",
    "MEAN_MOTION": 15.02532232,
    "ECCENTRICITY": 0.0001093,
    "INCLINATION": 43.0038,
    "RA_OF_ASC_NODE": 249.6215,
    "ARG_OF_PERICENTER": 258.4736,
    "MEAN_ANOMALY": 101.5984,
    "EPHEMERIS_TYPE": 0,
    "CLASSIFICATION_TYPE": "U",
    "NORAD_CAT_ID": 55464,
    "ELEMENT_SET_NO": 999,
    "REV_AT_EPOCH": 15293,
    "BSTAR": 6.181700000000001e-05,
    "MEAN_MOTION_DOT": 6.31e-06,
    "MEAN_MOTION_DDOT": 0.0,
    "TLE_LINE1": "1 55464U 23015R   25315.21301656  .00000631  00000+0  61817-4 0  9991",
    "TLE_LINE2": "2 55464  43.0038 249.6215 0001093 258.4736 101.5984 15.02532232152934",
    "COMMENT": "Grouped by shell and plane from TLE"
  },
  {
    "OBJECT_NAME": "STARLINK-5628",
    "OBJECT_ID": "23015T",
    "EPOCH": "2025-11-11T04:47:33.600480",
    "MEAN_MOTION": 15.02534863,
    "ECCENTRICITY": 0.0001409,
    "INCLINATION": 43.0046,
    "RA_OF_ASC_NODE": 249.5197,
    "ARG_OF_PERICENTER": 262.9126,
    "MEAN_ANOMALY": 97.1556,
    "EPHEMERIS_TYPE": 0,
    "CLASSIFICATION_TYPE": "U",
    "NORAD_CAT_ID": 55466,
    "ELEMENT_SET_NO": 999,
    "REV_AT_EPOCH": 15293,
    "BSTAR": 7.1559e-05,
    "MEAN_MOTION_DOT": 7.63e-06,
    "MEAN_MOTION_DDOT": 0.0,
    "TLE_LINE1": "1 55466U 23015T   25315.19969445  .00000763  00000+0  71559-4 0  9996",
    "TLE_LINE2": "2 55466  43.0046 249.5197 0001409 262.9126  97.1556 15.02534863152934",
    "COMMENT": "Grouped by shell and plane from TLE"
  },
  {
    "OBJECT_NAME": "STARLINK-5679",
    "OBJECT_ID": "23015U",
    "EPOCH": "2025-11-11T05:21:08.184096",
    "MEAN_MOTION": 15.0252503,
    "ECCENTRICITY": 0.0002422,
    "INCLINATION": 43.0072,
    "RA_OF_ASC_NODE": 249.6941,
    "ARG_OF_PERICENTER": 268.1908,
    "MEAN_ANOMALY": 91.8657,
    "EPHEMERIS_TYPE": 0,
    "CLASSIFICATION_TYPE": "U",
    "NORAD_CAT_ID": 55467,
    "ELEMENT_SET_NO": 999,
    "REV_AT_EPOCH": 15293,
    "BSTAR": 0.0,
    "MEAN_MOTION_DOT": -2.19e-06,
    "MEAN_MOTION_DDOT": 0.0,
    "TLE_LINE1": "1 55467U 23015U   25315.22301139 -.00000219  00000+0 -10858-5 0  9995",
    "TLE_LINE2": "2 55467  43.0072 249.6941 0002422 268.1908  91.8657 15.02525030152933",
    "COMMENT": "Grouped by shell and plane from TLE"
  },
  {
    "OBJECT_NAME": "STARLINK-5672",
    "OBJECT_ID": "23015V",
    "EPOCH": "2025-11-11T05:03:33.305760",
    "MEAN_MOTION": 15.02531735,
    "ECCENTRICITY": 0.0001469,
    "INCLINATION": 43.0049,
    "RA_OF_ASC_NODE": 249.6022,
    "ARG_OF_PERICENTER": 264.6849,
    "MEAN_ANOMALY": 95.3825,
    "EPHEMERIS_TYPE": 0,
    "CLASSIFICATION_TYPE": "U",
    "NORAD_CAT_ID": 55468,
    "ELEMENT_SET_NO": 999,
    "REV_AT_EPOCH": 15293,
    "BSTAR": 0.0,
    "MEAN_MOTION_DOT": -1.094e-05,
    "MEAN_MOTION_DDOT": 0.0,
    "TLE_LINE1": "1 55468U 23015V   25315.21080215 -.00001094  00000+0 -65899-4 0  9990",
    "TLE_LINE2": "2 55468  43.0049 249.6022 0001469 264.6849  95.3825 15.02531735152938",
    "COMMENT": "Grouped by shell and plane from TLE"
  },
  {
    "OBJECT_NAME": "STARLINK-5681",
    "OBJECT_ID": "23015W",
    "EPOCH": "2025-11-11T03:32:36.334464",
    "MEAN_MOTION": 15.02545347,
    "ECCENTRICITY": 8.73e-05,
    "INCLINATION": 43.0042,
    "RA_OF_ASC_NODE": 249.9907,
    "ARG_OF_PERICENTER": 264.1611,
    "MEAN_ANOMALY": 95.9132,
    "EPHEMERIS_TYPE": 0,
    "CLASSIFICATION_TYPE": "U",
    "NORAD_CAT_ID": 55469,
    "ELEMENT_SET_NO": 999,
    "REV_AT_EPOCH": 15292,
    "BSTAR": 0.0,
    "MEAN_MOTION_DOT": -2.65e-06,
    "MEAN_MOTION_DDOT": 0.0,
    "TLE_LINE1": "1 55469U 23015W   25315.14764276 -.00000265  00000+0 -45180-5 0  9990",
    "TLE_LINE2": "2 55469  43.0042 249.9907 0000873 264.1611  95.9132 15.02545347152927",
    "COMMENT": "Grouped by shell and plane from TLE"
  },
  {
    "OBJECT_NAME": "STARLINK-5708",
    "OBJECT_ID": "23015X",
    "EPOCH": "2025-11-11T03:21:28.354464",
    "MEAN_MOTION": 15.02515128,
    "ECCENTRICITY": 6.57e-05,
    "INCLINATION": 43.0026,
    "RA_OF_ASC_NODE": 249.9313,
    "ARG_OF_PERICENTER": 255.8979,
    "MEAN_ANOMALY": 104.179,
    "EPHEMERIS_TYPE": 0,
    "CLASSIFICATION_TYPE": "U",
    "NORAD_CAT_ID": 55470,
    "ELEMENT_SET_NO": 999,
    "REV_AT_EPOCH": 15292,
    "BSTAR": 0.0,
    "MEAN_MOTION_DOT": -6.323e-05,
    "MEAN_MOTION_DDOT": 0.0,
    "TLE_LINE1": "1 55470U 23015X   25315.13991151 -.00006323  00000+0 -45370-3 0  9995",
    "TLE_LINE2": "2 55470  43.0026 249.9313 0000657 255.8979 104.1790 15.02515128152923",
    "COMMENT": "Grouped by shell and plane from TLE"
  },
  {
    "OBJECT_NAME": "STARLINK-5650",
    "OBJECT_ID": "23015AC",
    "EPOCH": "2025-11-11T04:42:45.859104",
    "MEAN_MOTION": 15.02538109,
    "ECCENTRICITY": 0.000125,
    "INCLINATION": 43.0035,
    "RA_OF_ASC_NODE": 249.4935,
    "ARG_OF_PERICENTER": 269.9045,
    "MEAN_ANOMALY": 90.1654,
    "EPHEMERIS_TYPE": 0,
    "CLASSIFICATION_TYPE": "U",
    "NORAD_CAT_ID": 55475,
    "ELEMENT_SET_NO": 999,
    "REV_AT_EPOCH": 15293,
    "BSTAR": 4.2108000000000004e-05,
    "MEAN_MOTION_DOT": 3.65e-06,
    "MEAN_MOTION_DDOT": 0.0,
    "TLE_LINE1": "1 55475U 23015AC  25315.19636411  .00000365  00000+0  42108-4 0  9996",
    "TLE_LINE2": "2 55475  43.0035 249.4935 0001250 269.9045  90.1654 15.02538109152931",
    "COMMENT": "Grouped by shell and plane from TLE"
  },
  {
    "OBJECT_NAME": "STARLINK-5856",
    "OBJECT_ID": "23037A",
    "EPOCH": "2025-11-11T04:36:45.165024",
    "MEAN_MOTION": 14.98333881,
    "ECCENTRICITY": 0.0002541,
    "INCLINATION": 70.0,
    "RA_OF_ASC_NODE": 243.379,
    "ARG_OF_PERICENTER": 270.8392,
    "MEAN_ANOMALY": 89.2476,
    "EPHEMERIS_TYPE": 0,
    "CLASSIFICATION_TYPE": "U",
    "NORAD_CAT_ID": 55914,
    "ELEMENT_SET_NO": 999,
    "REV_AT_EPOCH": 14642,
    "BSTAR": 0.00015516,
    "MEAN_MOTION_DOT": 1.759e-05,
    "MEAN_MOTION_DDOT": 0.0,
    "TLE_LINE1": "1 55914U 23037A   25315.19218941  .00001759  00000+0  15516-3 0  9992",
    "TLE_LINE2": "2 55914  70.0000 243.3790 0002541 270.8392  89.2476 14.98333881146425",
    "COMMENT": "Grouped by shell and plane from TLE"
  },
  {
    "OBJECT_NAME": "STARLINK-5859",
    "OBJECT_ID": "23037B",
    "EPOCH": "2025-11-11T05:48:51.080832",
    "MEAN_MOTION": 14.9833511,
    "ECCENTRICITY": 0.0003116,
    "INCLINATION": 69.9995,
    "RA_OF_ASC_NODE": 243.1509,
    "ARG_OF_PERICENTER": 273.5837,
    "MEAN_ANOMALY": 86.4966,
    "EPHEMERIS_TYPE": 0,
    "CLASSIFICATION_TYPE": "U",
    "NORAD_CAT_ID": 55915,
    "ELEMENT_SET_NO": 999,
    "REV_AT_EPOCH": 14643,
    "BSTAR": 0.0,
    "MEAN_MOTION_DOT": -2.685e-05,
    "MEAN_MOTION_DDOT": 0.0,
    "TLE_LINE1": "1 55915U 23037B   25315.24225788 -.00002685  00000+0 -21731-3 0  9993",
    "TLE_LINE2": "2 55915  69.9995 243.1509 0003116 273.5837  86.4966 14.98335110146436",
    "COMMENT": "Grouped by shell and plane from TLE"
  },
  {
    "OBJECT_NAME": "STARLINK-5796",
    "OBJECT_ID": "23037C",
    "EPOCH": "2025-11-11T04:30:46.004544",
    "MEAN_MOTION": 14.98307855,
    "ECCENTRICITY": 0.0002597,
    "INCLINATION": 70.0003,
    "RA_OF_ASC_NODE": 243.3648,
    "ARG_OF_PERICENTER": 277.1142,
    "MEAN_ANOMALY": 82.9722,
    "EPHEMERIS_TYPE": 0,
    "CLASSIFICATION_TYPE": "U",
    "NORAD_CAT_ID": 55916,
    "ELEMENT_SET_NO": 999,
    "REV_AT_EPOCH": 14573,
    "BSTAR": 0.00010391,
    "MEAN_MOTION_DOT": 1.146e-05,
    "MEAN_MOTION_DDOT": 0.0,
    "TLE_LINE1": "1 55916U 23037C   25315.18803246  .00001146  00000+0  10391-3 0  9997",
    "TLE_LINE2": "2 55916  70.0003 243.3648 0002597 277.1142  82.9722 14.98307855145735",
    "COMMENT": "Grouped by shell and plane from TLE"
  },
  {
    "OBJECT_NAME": "STARLINK-5867",
    "OBJECT_ID": "23037E",
    "EPOCH": "2025-11-11T04:24:43.932384",
    "MEAN_MOTION": 14.98340755,
    "ECCENTRICITY": 0.0002836,
    "INCLINATION": 70.001,
    "RA_OF_ASC_NODE": 243.3495,
    "ARG_OF_PERICENTER": 271.644,
    "MEAN_ANOMALY": 88.4394,
    "EPHEMERIS_TYPE": 0,
    "CLASSIFICATION_TYPE": "U",
    "NORAD_CAT_ID": 55918,
    "ELEMENT_SET_NO": 999,
    "REV_AT_EPOCH": 14573,
    "BSTAR": 0.00031042,
    "MEAN_MOTION_DOT": 3.614e-05,
    "MEAN_MOTION_DDOT": 0.0,
    "TLE_LINE1": "1 55918U 23037E   25315.18384181  .00003614  00000+0  31042-3 0  9999",
    "TLE_LINE2": "2 55918  70.0010 243.3495 0002836 271.6440  88.4394 14.98340755145733",
    "COMMENT": "Grouped by shell and plane from TLE"
  },
  {
    "OBJECT_NAME": "STARLINK-5871",
    "OBJECT_ID": "23037F",
    "EPOCH": "2025-11-11T05:49:05.194272",
    "MEAN_MOTION": 14.98320853,
    "ECCENTRICITY": 0.0002589,
    "INCLINATION": 70.0005,
    "RA_OF_ASC_NODE": 243.15,
    "ARG_OF_PERICENTER": 278.1158,
    "MEAN_ANOMALY": 81.9707,
    "EPHEMERIS_TYPE": 0,
    "CLASSIFICATION_TYPE": "U",
    "NORAD_CAT_ID": 55919,
    "ELEMENT_SET_NO": 999,
    "REV_AT_EPOCH": 14574,
    "BSTAR": 0.00034123,
    "MEAN_MOTION_DOT": 3.98e-05,
    "MEAN_MOTION_DDOT": 0.0,
    "TLE_LINE1": "1 55919U 23037F   25315.24242123  .00003980  00000+0  34123-3 0  9995",
    "TLE_LINE2": "2 55919  70.0005 243.1500 0002589 278.1158  81.9707 14.98320853145740",
    "COMMENT": "Grouped by shell and plane from TLE"
  }
]